{
    "links": {
        "self": "http://www.neowsapp.com/rest/v1/neo/3653534?api_key=iIulBulltgU6a56xZRHN4H3l9WmuAYTsLGpBGhQ2"
    },
    "id": "3653534",
    "neo_reference_id": "3653534",
    "name": "(2013 VM5)",
    "designation": "2013 VM5",
    "nasa_jpl_url": "http://ssd.jpl.nasa.gov/sbdb.cgi?sstr=3653534",
    "absolute_magnitude_h": 25.7,
    "estimated_diameter": {
        "kilometers": {
            "estimated_diameter_min": 0.0192555078,
            "estimated_diameter_max": 0.0430566244
        },
        "meters": {
            "estimated_diameter_min": 19.2555078188,
            "estimated_diameter_max": 43.0566244241
        },
        "miles": {
            "estimated_diameter_min": 0.0119648141,
            "estimated_diameter_max": 0.0267541378
        },
        "feet": {
            "estimated_diameter_min": 63.1742402722,
            "estimated_diameter_max": 141.2618956756
        }
    },
    "is_potentially_hazardous_asteroid": false,
    "close_approach_data": [
        {
            "close_approach_date": "2013-10-28",
            "close_approach_date_full": "2013-Oct-28 08:07",
            "epoch_date_close_approach": 1382947620000,
            "relative_velocity": {
                "kilometers_per_second": "13.1895516913",
                "kilometers_per_hour": "47482.3860888542",
                "miles_per_hour": "29503.7081783772"
            },
            "miss_distance": {
                "astronomical": "0.0231871697",
                "lunar": "9.0198090133",
                "kilometers": "3468751.198448539",
                "miles": "2155382.0483222782"
            },
            "orbiting_body": "Earth"
        }
    ],
    "orbital_data": {
        "orbit_id": "11",
        "orbit_determination_date": "2017-04-06 08:43:48",
        "first_observation_date": "2013-11-04",
        "last_observation_date": "2013-11-26",
        "data_arc_in_days": 22,
        "observations_used": 24,
        "orbit_uncertainty": "7",
        "minimum_orbit_intersection": ".000707204",
        "jupiter_tisserand_invariant": "3.016",
        "epoch_osculation": "2459000.5",
        "eccentricity": ".6731639996528852",
        "semi_major_axis": "2.655437632785561",
        "inclination": "1.103135989833707",
        "ascending_node_longitude": "120.9615317647696",
        "orbital_period": "1580.529424777205",
        "perihelion_distance": ".8678926150708434",
        "perihelion_argument": "232.2470049602555",
        "aphelion_distance": "4.442982650500279",
        "perihelion_time": "2459744.452258732946",
        "mean_anomaly": "190.548669992896",
        "mean_motion": ".2277717797318113",
        "equinox": "J2000",
        "orbit_class": {
            "orbit_class_type": "APO",
            "orbit_class_description": "Near-Earth asteroid orbits which cross the Earth’s orbit similar to that of 1862 Apollo",
            "orbit_class_range": "a (semi-major axis) > 1.0 AU; q (perihelion) < 1.017 AU"
        }
    },
    "is_sentry_object": false
}